FORMOSAT 7-3            
1 44343U 19036E   26068.82630502  .00006445  00000+0  37650-3 0  9997
2 44343  23.9981 141.9797 0001061 150.4425 209.6139 15.08933962368215
STARLINK-4017           
1 52682U 22053AC  26068.48974602 -.00000615  00000+0 -20596-4 0  9996
2 52682  53.2172 145.0152 0000814  85.6039 274.5046 15.08836483211128
